QIANFAN-113             
1 68640U 26075E   26201.91976242  .00000118  00000+0  16374-3 0  9998
2 68640  88.9922 317.5537 0002042 108.3618 251.7755 13.51019479 14366
QIANFAN-114             
1 68641U 26075F   26201.85389838  .00000107  00000+0  14699-3 0  9997
2 68641  88.9917 317.5780 0002083 105.1394 254.9988 13.51018151 14349
QIANFAN-115             
1 68642U 26075G   26201.88263333  .00000108  00000+0  14868-3 0  9991
2 68642  88.9917 317.5823 0002239 106.9294 253.2103 13.51014903 14341
QIANFAN-116             
1 68643U 26075H   26201.87029167  .00000120  00000+0  16653-3 0  9994
2 68643  88.9910 317.5412 0002100 114.9586 245.1783 13.51015464 14357
QIANFAN-117             
1 68644U 26075J   26201.85794460  .00000096  00000+0  13029-3 0  9994
2 68644  88.9915 317.5597 0002231 110.6989 249.4401 13.51013320 14355
QIANFAN-118             
1 68645U 26075K   26201.89086508  .00000117  00000+0  16333-3 0  9991
2 68645  88.9920 317.5660 0001982 103.5965 256.5407 13.51015253 14352
QIANFAN-119             
1 68646U 26075L   26201.86619914  .00000120  00000+0  16655-3 0  9993
2 68646  88.9920 317.5641 0002353 111.6739 248.4663 13.51021509 14359
QIANFAN-120             
1 68647U 26075M   26201.87865352  .00000112  00000+0  15545-3 0  9992
2 68647  88.9922 317.5484 0002499 110.9683 249.1736 13.51022003 14368
QIANFAN-121             
1 68648U 26075N   26201.90324636  .00000127  00000+0  17882-3 0  9994
2 68648  88.9919 317.5501 0002062 103.4021 256.7360 13.51014084 14361
QIANFAN-122             
1 68649U 26075P   26201.89512217  .00000119  00000+0  16586-3 0  9998
2 68649  88.9918 317.5487 0002279 112.5077 247.6316 13.51017728 14353
QIANFAN-123             
1 68650U 26075Q   26201.86225337  .00000115  00000+0  15879-3 0  9991
2 68650  88.9915 317.5410 0002429 116.4426 243.6975 13.51016094 14336
QIANFAN-124             
1 68651U 26075R   26201.88690050  .00000109  00000+0  15042-3 0  9997
2 68651  88.9918 317.5483 0002304 114.2036 245.9356 13.51017329 14368
QIANFAN-125             
1 68652U 26075S   26201.89913778  .00000122  00000+0  17018-3 0  9994
2 68652  88.9917 317.5491 0002038 103.9191 256.2187 13.51014278 14365
QIANFAN-126             
1 68653U 26075T   26201.90742308  .00000129  00000+0  18045-3 0  9994
2 68653  88.9921 317.5153 0002447 115.8597 244.2807 13.51019388 14387
QIANFAN-127             
1 69073U 26104A   26201.76978477 -.01855968  00000+0 -30275+1 0  9994
2 69073  88.9917 338.0352 0009357   7.2673 352.8613 13.52120426  9690
QIANFAN-128             
1 69074U 26104B   26201.55002089 -.02055946  00000+0 -35346+1 0  9992
2 69074  88.9890 338.0916 0004814 241.9089 118.1574 13.48511913  9642
