{"fetched_at":"2026-07-21T07:06:31.784Z","source":"https://celestrak.org/NORAD/elements/gp.php?GROUP=qianfan&FORMAT=JSON","constellation":"qianfan","records":[{"OBJECT_NAME":"QIANFAN-113","OBJECT_ID":"2026-075E","EPOCH":"2026-07-20T22:04:27.473088","CLASSIFICATION_TYPE":"U","MEAN_MOTION":13.51019479,"ECCENTRICITY":0.00020424,"INCLINATION":88.9922,"RA_OF_ASC_NODE":317.5537,"ARG_OF_PERICENTER":108.3618,"MEAN_ANOMALY":251.7755,"EPHEMERIS_TYPE":0,"NORAD_CAT_ID":68640,"ELEMENT_SET_NO":999,"REV_AT_EPOCH":1436,"BSTAR":0.00016374233,"MEAN_MOTION_DOT":0.00000118,"MEAN_MOTION_DDOT":0},{"OBJECT_NAME":"QIANFAN-114","OBJECT_ID":"2026-075F","EPOCH":"2026-07-20T20:29:36.820032","CLASSIFICATION_TYPE":"U","MEAN_MOTION":13.51018151,"ECCENTRICITY":0.00020837,"INCLINATION":88.9917,"RA_OF_ASC_NODE":317.578,"ARG_OF_PERICENTER":105.1394,"MEAN_ANOMALY":254.9988,"EPHEMERIS_TYPE":0,"NORAD_CAT_ID":68641,"ELEMENT_SET_NO":999,"REV_AT_EPOCH":1434,"BSTAR":0.00014698742,"MEAN_MOTION_DOT":0.00000107,"MEAN_MOTION_DDOT":0},{"OBJECT_NAME":"QIANFAN-115","OBJECT_ID":"2026-075G","EPOCH":"2026-07-20T21:10:59.519712","CLASSIFICATION_TYPE":"U","MEAN_MOTION":13.51014903,"ECCENTRICITY":0.00022394,"INCLINATION":88.9917,"RA_OF_ASC_NODE":317.5823,"ARG_OF_PERICENTER":106.9294,"MEAN_ANOMALY":253.2103,"EPHEMERIS_TYPE":0,"NORAD_CAT_ID":68642,"ELEMENT_SET_NO":999,"REV_AT_EPOCH":1434,"BSTAR":0.00014868206,"MEAN_MOTION_DOT":0.00000108,"MEAN_MOTION_DDOT":0},{"OBJECT_NAME":"QIANFAN-116","OBJECT_ID":"2026-075H","EPOCH":"2026-07-20T20:53:13.200288","CLASSIFICATION_TYPE":"U","MEAN_MOTION":13.51015464,"ECCENTRICITY":0.00021003,"INCLINATION":88.991,"RA_OF_ASC_NODE":317.5412,"ARG_OF_PERICENTER":114.9586,"MEAN_ANOMALY":245.1783,"EPHEMERIS_TYPE":0,"NORAD_CAT_ID":68643,"ELEMENT_SET_NO":999,"REV_AT_EPOCH":1435,"BSTAR":0.00016653172,"MEAN_MOTION_DOT":0.0000012,"MEAN_MOTION_DDOT":0},{"OBJECT_NAME":"QIANFAN-117","OBJECT_ID":"2026-075J","EPOCH":"2026-07-20T20:35:26.413440","CLASSIFICATION_TYPE":"U","MEAN_MOTION":13.5101332,"ECCENTRICITY":0.00022312,"INCLINATION":88.9915,"RA_OF_ASC_NODE":317.5597,"ARG_OF_PERICENTER":110.6989,"MEAN_ANOMALY":249.4401,"EPHEMERIS_TYPE":0,"NORAD_CAT_ID":68644,"ELEMENT_SET_NO":999,"REV_AT_EPOCH":1435,"BSTAR":0.00013028639,"MEAN_MOTION_DOT":9.6e-7,"MEAN_MOTION_DDOT":0},{"OBJECT_NAME":"QIANFAN-118","OBJECT_ID":"2026-075K","EPOCH":"2026-07-20T21:22:50.742912","CLASSIFICATION_TYPE":"U","MEAN_MOTION":13.51015253,"ECCENTRICITY":0.00019821,"INCLINATION":88.992,"RA_OF_ASC_NODE":317.566,"ARG_OF_PERICENTER":103.5965,"MEAN_ANOMALY":256.5407,"EPHEMERIS_TYPE":0,"NORAD_CAT_ID":68645,"ELEMENT_SET_NO":999,"REV_AT_EPOCH":1435,"BSTAR":0.00016332666,"MEAN_MOTION_DOT":0.00000117,"MEAN_MOTION_DDOT":0},{"OBJECT_NAME":"QIANFAN-119","OBJECT_ID":"2026-075L","EPOCH":"2026-07-20T20:47:19.605696","CLASSIFICATION_TYPE":"U","MEAN_MOTION":13.51021509,"ECCENTRICITY":0.00023533,"INCLINATION":88.992,"RA_OF_ASC_NODE":317.5641,"ARG_OF_PERICENTER":111.6739,"MEAN_ANOMALY":248.4663,"EPHEMERIS_TYPE":0,"NORAD_CAT_ID":68646,"ELEMENT_SET_NO":999,"REV_AT_EPOCH":1435,"BSTAR":0.00016654868,"MEAN_MOTION_DOT":0.0000012,"MEAN_MOTION_DDOT":0},{"OBJECT_NAME":"QIANFAN-120","OBJECT_ID":"2026-075M","EPOCH":"2026-07-20T21:05:15.664128","CLASSIFICATION_TYPE":"U","MEAN_MOTION":13.51022003,"ECCENTRICITY":0.00024995,"INCLINATION":88.9922,"RA_OF_ASC_NODE":317.5484,"ARG_OF_PERICENTER":110.9683,"MEAN_ANOMALY":249.1736,"EPHEMERIS_TYPE":0,"NORAD_CAT_ID":68647,"ELEMENT_SET_NO":999,"REV_AT_EPOCH":1436,"BSTAR":0.00015545458,"MEAN_MOTION_DOT":0.00000112,"MEAN_MOTION_DDOT":0},{"OBJECT_NAME":"QIANFAN-121","OBJECT_ID":"2026-075N","EPOCH":"2026-07-20T21:40:40.485504","CLASSIFICATION_TYPE":"U","MEAN_MOTION":13.51014084,"ECCENTRICITY":0.00020621,"INCLINATION":88.9919,"RA_OF_ASC_NODE":317.5501,"ARG_OF_PERICENTER":103.4021,"MEAN_ANOMALY":256.736,"EPHEMERIS_TYPE":0,"NORAD_CAT_ID":68648,"ELEMENT_SET_NO":999,"REV_AT_EPOCH":1436,"BSTAR":0.00017881579,"MEAN_MOTION_DOT":0.00000127,"MEAN_MOTION_DDOT":0},{"OBJECT_NAME":"QIANFAN-122","OBJECT_ID":"2026-075P","EPOCH":"2026-07-20T21:28:58.555488","CLASSIFICATION_TYPE":"U","MEAN_MOTION":13.51017728,"ECCENTRICITY":0.00022791,"INCLINATION":88.9918,"RA_OF_ASC_NODE":317.5487,"ARG_OF_PERICENTER":112.5077,"MEAN_ANOMALY":247.6316,"EPHEMERIS_TYPE":0,"NORAD_CAT_ID":68649,"ELEMENT_SET_NO":999,"REV_AT_EPOCH":1435,"BSTAR":0.00016585648,"MEAN_MOTION_DOT":0.00000119,"MEAN_MOTION_DDOT":0},{"OBJECT_NAME":"QIANFAN-123","OBJECT_ID":"2026-075Q","EPOCH":"2026-07-20T20:41:38.691168","CLASSIFICATION_TYPE":"U","MEAN_MOTION":13.51016094,"ECCENTRICITY":0.00024293,"INCLINATION":88.9915,"RA_OF_ASC_NODE":317.541,"ARG_OF_PERICENTER":116.4426,"MEAN_ANOMALY":243.6975,"EPHEMERIS_TYPE":0,"NORAD_CAT_ID":68650,"ELEMENT_SET_NO":999,"REV_AT_EPOCH":1433,"BSTAR":0.0001587942,"MEAN_MOTION_DOT":0.00000115,"MEAN_MOTION_DDOT":0},{"OBJECT_NAME":"QIANFAN-124","OBJECT_ID":"2026-075R","EPOCH":"2026-07-20T21:17:08.203200","CLASSIFICATION_TYPE":"U","MEAN_MOTION":13.51017329,"ECCENTRICITY":0.00023044,"INCLINATION":88.9918,"RA_OF_ASC_NODE":317.5483,"ARG_OF_PERICENTER":114.2036,"MEAN_ANOMALY":245.9356,"EPHEMERIS_TYPE":0,"NORAD_CAT_ID":68651,"ELEMENT_SET_NO":999,"REV_AT_EPOCH":1436,"BSTAR":0.00015042337,"MEAN_MOTION_DOT":0.00000109,"MEAN_MOTION_DDOT":0},{"OBJECT_NAME":"QIANFAN-125","OBJECT_ID":"2026-075S","EPOCH":"2026-07-20T21:34:45.504192","CLASSIFICATION_TYPE":"U","MEAN_MOTION":13.51014278,"ECCENTRICITY":0.0002038,"INCLINATION":88.9917,"RA_OF_ASC_NODE":317.5491,"ARG_OF_PERICENTER":103.9191,"MEAN_ANOMALY":256.2187,"EPHEMERIS_TYPE":0,"NORAD_CAT_ID":68652,"ELEMENT_SET_NO":999,"REV_AT_EPOCH":1436,"BSTAR":0.00017017702,"MEAN_MOTION_DOT":0.00000122,"MEAN_MOTION_DDOT":0},{"OBJECT_NAME":"QIANFAN-126","OBJECT_ID":"2026-075T","EPOCH":"2026-07-20T21:46:41.354112","CLASSIFICATION_TYPE":"U","MEAN_MOTION":13.51019388,"ECCENTRICITY":0.00024478,"INCLINATION":88.9921,"RA_OF_ASC_NODE":317.5153,"ARG_OF_PERICENTER":115.8597,"MEAN_ANOMALY":244.2807,"EPHEMERIS_TYPE":0,"NORAD_CAT_ID":68653,"ELEMENT_SET_NO":999,"REV_AT_EPOCH":1438,"BSTAR":0.00018044563,"MEAN_MOTION_DOT":0.00000129,"MEAN_MOTION_DDOT":0},{"OBJECT_NAME":"QIANFAN-127","OBJECT_ID":"2026-104A","EPOCH":"2026-07-20T18:28:29.404128","CLASSIFICATION_TYPE":"U","MEAN_MOTION":13.52120426,"ECCENTRICITY":0.00093577,"INCLINATION":88.9917,"RA_OF_ASC_NODE":338.0352,"ARG_OF_PERICENTER":7.2673,"MEAN_ANOMALY":352.8613,"EPHEMERIS_TYPE":0,"NORAD_CAT_ID":69073,"ELEMENT_SET_NO":999,"REV_AT_EPOCH":969,"BSTAR":-3.0274933,"MEAN_MOTION_DOT":-0.01855968,"MEAN_MOTION_DDOT":0},{"OBJECT_NAME":"QIANFAN-128","OBJECT_ID":"2026-104B","EPOCH":"2026-07-20T13:12:01.804896","CLASSIFICATION_TYPE":"U","MEAN_MOTION":13.48511913,"ECCENTRICITY":0.0004814,"INCLINATION":88.989,"RA_OF_ASC_NODE":338.0916,"ARG_OF_PERICENTER":241.9089,"MEAN_ANOMALY":118.1574,"EPHEMERIS_TYPE":0,"NORAD_CAT_ID":69074,"ELEMENT_SET_NO":999,"REV_AT_EPOCH":964,"BSTAR":-3.5346,"MEAN_MOTION_DOT":-0.02055946,"MEAN_MOTION_DDOT":0}]}
